0 COSMOS 2251 DEB
1 34015U 93036HA  13281.64773331  .00000888  00000-0  31788-3 0  8839
2 34015 074.0354 149.8737 0030538 245.5991 176.6923 14.35210696243461
0 COSMOS 2251 DEB
1 34015U 93036HA  13284.02821557  .00001331  00000-0  47193-3 0  8840
2 34015 074.0351 145.5091 0030449 240.7655 235.9977 14.35219570243805
0 COSMOS 2251 DEB
1 34015U 93036HA  13286.05827514  .00001281  00000-0  45448-3 0  8850
2 34015 074.0348 141.7872 0030371 236.6601 284.7940 14.35224949244095
0 COSMOS 2251 DEB
1 34015U 93036HA  13288.28105472  .00002094  00000-0  73699-3 0  8862
2 34015 074.0345 137.7118 0030367 232.2469 249.2940 14.35233176244413
0 COSMOS 2251 DEB
1 34015U 93036HA  13290.71119652  .00001948  00000-0  68604-3 0  8876
2 34015 074.0347 133.2557 0030205 227.3631 205.3268 14.35244799244767
0 COSMOS 2251 DEB
1 34015U 93036HA  13293.09401280  .00002614  00000-0  91736-3 0  8885
2 34015 074.0351 128.8882 0030200 222.3125 277.2016 14.35251756245100
0 COSMOS 2251 DEB
1 34015U 93036HA  13295.51246892  .00003001  00000-0  10514-2 0  8896
2 34015 074.0356 124.4539 0030109 217.4243 173.0601 14.35264148245450
